{"type": "FeatureCollection", "features": [ {"type": "Feature", "properties": {"norad_id": 31327, "name": "FENGYUN 1C DEB", "group": "fengyun-1c-debris", "lat": -12.9297706843231, "lon": 168.88781528431872, "alt_km": 596.1011908250221, "timestamp": "2025-12-15T04:01:20.733429+00:00", "meta": {"OBJECT_NAME": "FENGYUN 1C DEB", "OBJECT_ID": "1999-025BQF", "EPOCH": "2025-12-14T06:30:36.494208", "MEAN_MOTION": 15.11016612, "ECCENTRICITY": 0.00864121, "INCLINATION": 98.9852, "RA_OF_ASC_NODE": 349.9179, "ARG_OF_PERICENTER": 5.2272, "MEAN_ANOMALY": 354.9835, "EPHEMERIS_TYPE": 0, "CLASSIFICATION_TYPE": "U", "NORAD_CAT_ID": 31327, "ELEMENT_SET_NO": 999, "REV_AT_EPOCH": 122, "BSTAR": 0.0017568388, "MEAN_MOTION_DOT": 0.00032137, "MEAN_MOTION_DDOT": 0}, "tle": {"line1": "1 31327U 99025BQF 25348.27125572  .00032137  00000+0  17568-2 0  9998", "line2": "2 31327  98.9852 349.9179 0086412   5.2272 354.9835 15.11016612  1226"}}, "geometry": {"type": "Point", "coordinates": [168.88781528431872, -12.9297706843231]}}, {"type": "Feature", "properties": {"norad_id": 31328, "name": "FENGYUN 1C DEB", "group": "fengyun-1c-debris", "lat": 3.389231437011071, "lon": -37.637346174251086, "alt_km": 864.5266693250924, "timestamp": "2025-12-15T04:01:20.733439+00:00", "meta": {"OBJECT_NAME": "FENGYUN 1C DEB", "OBJECT_ID": "1999-025BQG", "EPOCH": "2025-12-12T08:47:04.591104", "MEAN_MOTION": 14.28944572, "ECCENTRICITY": 0.01035932, "INCLINATION": 98.4833, "RA_OF_ASC_NODE": 320.1432, "ARG_OF_PERICENTER": 217.5445, "MEAN_ANOMALY": 141.8472, "EPHEMERIS_TYPE": 0, "CLASSIFICATION_TYPE": "U", "NORAD_CAT_ID": 31328, "ELEMENT_SET_NO": 999, "REV_AT_EPOCH": 97457, "BSTAR": 0.00012675973, "MEAN_MOTION_DOT": 2.96e-06, "MEAN_MOTION_DDOT": 0}, "tle": {"line1": "1 31328U 99025BQG 25346.36602536  .00000296  00000+0  12676-3 0  9994", "line2": "2 31328  98.4833 320.1432 0103593 217.5445 141.8472 14.28944572974573"}}, "geometry": {"type": "Point", "coordinates": [-37.637346174251086, 3.389231437011071]}}, {"type": "Feature", "properties": {"norad_id": 31330, "name": "FENGYUN 1C DEB", "group": "fengyun-1c-debris", "lat": 57.22333648872528, "lon": -11.94299587032969, "alt_km": 526.7424123077417, "timestamp": "2025-12-15T04:01:20.733449+00:00", "meta": {"OBJECT_NAME": "FENGYUN 1C DEB", "OBJECT_ID": "1999-025BQJ", "EPOCH": "2025-12-14T03:53:07.366848", "MEAN_MOTION": 15.11211031, "ECCENTRICITY": 0.00043801, "INCLINATION": 98.884, "RA_OF_ASC_NODE": 152.8302, "ARG_OF_PERICENTER": 228.5982, "MEAN_ANOMALY": 184.3803, "EPHEMERIS_TYPE": 0, "CLASSIFICATION_TYPE": "U", "NORAD_CAT_ID": 31330, "ELEMENT_SET_NO": 999, "REV_AT_EPOCH": 97151, "BSTAR": 0.0097410338, "MEAN_MOTION_DOT": 0.00167357, "MEAN_MOTION_DDOT": 0}, "tle": {"line1": "1 31330U 99025BQJ 25348.16189082  .00167357  00000+0  97410-2 0  9993", "line2": "2 31330  98.8840 152.8302 0004380 228.5982 184.3803 15.11211031971517"}}, "geometry": {"type": "Point", "coordinates": [-11.94299587032969, 57.22333648872528]}}, {"type": "Feature", "properties": {"norad_id": 31331, "name": "FENGYUN 1C DEB", "group": "fengyun-1c-debris", "lat": 79.91205396130233, "lon": -103.67275809845766, "alt_km": 877.9400013495997, "timestamp": "2025-12-15T04:01:20.733459+00:00", "meta": {"OBJECT_NAME": "FENGYUN 1C DEB", "OBJECT_ID": "1999-025BQK", "EPOCH": "2025-12-13T18:59:37.585536", "MEAN_MOTION": 14.00621869, "ECCENTRICITY": 0.0053276, "INCLINATION": 98.8724, "RA_OF_ASC_NODE": 13.5927, "ARG_OF_PERICENTER": 179.5886, "MEAN_ANOMALY": 180.5333, "EPHEMERIS_TYPE": 0, "CLASSIFICATION_TYPE": "U", "NORAD_CAT_ID": 31331, "ELEMENT_SET_NO": 999, "REV_AT_EPOCH": 63871, "BSTAR": 0.00044179528, "MEAN_MOTION_DOT": 6.23e-06, "MEAN_MOTION_DDOT": 0}, "tle": {"line1": "1 31331U 99025BQK 25347.79140724  .00000623  00000+0  44180-3 0  9991", "line2": "2 31331  98.8724  13.5927 0053276 179.5886 180.5333 14.00621869638710"}}, "geometry": {"type": "Point", "coordinates": [-103.67275809845766, 79.91205396130233]}}, {"type": "Feature", "properties": {"norad_id": 31332, "name": "FENGYUN 1C DEB", "group": "fengyun-1c-debris", "lat": 11.217065511959886, "lon": -2.309831324539546, "alt_km": 818.550037254684, "timestamp": "2025-12-15T04:01:20.733470+00:00", "meta": {"OBJECT_NAME": "FENGYUN 1C DEB", "OBJECT_ID": "1999-025BQL", "EPOCH": "2025-12-14T07:37:55.106688", "MEAN_MOTION": 14.11849803, "ECCENTRICITY": 0.00498727, "INCLINATION": 98.7061, "RA_OF_ASC_NODE": 358.6069, "ARG_OF_PERICENTER": 20.6669, "MEAN_ANOMALY": 355.034, "EPHEMERIS_TYPE": 0, "CLASSIFICATION_TYPE": "U", "NORAD_CAT_ID": 31332, "ELEMENT_SET_NO": 999, "REV_AT_EPOCH": 95994, "BSTAR": 0.0011920387, "MEAN_MOTION_DOT": 2.159e-05, "MEAN_MOTION_DDOT": 0}, "tle": {"line1": "1 31332U 99025BQL 25348.31799892  .00002159  00000+0  11920-2 0  9998", "line2": "2 31332  98.7061 358.6069 0049872  20.6669 355.0340 14.11849803959946"}}, "geometry": {"type": "Point", "coordinates": [-2.309831324539546, 11.217065511959886]}}, {"type": "Feature", "properties": {"norad_id": 31333, "name": "FENGYUN 1C DEB", "group": "fengyun-1c-debris", "lat": -5.968333573874528, "lon": 4.5397197306258725, "alt_km": 742.7781255618011, "timestamp": "2025-12-15T04:01:20.733479+00:00", "meta": {"OBJECT_NAME": "FENGYUN 1C DEB", "OBJECT_ID": "1999-025BQM", "EPOCH": "2025-12-12T18:49:01.084512", "MEAN_MOTION": 14.26541083, "ECCENTRICITY": 0.00986515, "INCLINATION": 98.4285, "RA_OF_ASC_NODE": 1.3563, "ARG_OF_PERICENTER": 26.4018, "MEAN_ANOMALY": 334.2142, "EPHEMERIS_TYPE": 0, "CLASSIFICATION_TYPE": "U", "NORAD_CAT_ID": 31333, "ELEMENT_SET_NO": 999, "REV_AT_EPOCH": 96592, "BSTAR": 0.0010969525, "MEAN_MOTION_DOT": 2.744e-05, "MEAN_MOTION_DDOT": 0}, "tle": {"line1": "1 31333U 99025BQM 25346.78404033  .00002744  00000+0  10970-2 0  9992", "line2": "2 31333  98.4285   1.3563 0098651  26.4018 334.2142 14.26541083965923"}}, "geometry": {"type": "Point", "coordinates": [4.5397197306258725, -5.968333573874528]}}, {"type": "Feature", "properties": {"norad_id": 31336, "name": "FENGYUN 1C DEB", "group": "fengyun-1c-debris", "lat": -27.92048267177268, "lon": -140.16361311990556, "alt_km": 775.870218367867, "timestamp": "2025-12-15T04:01:20.733490+00:00", "meta": {"OBJECT_NAME": "FENGYUN 1C DEB", "OBJECT_ID": "1999-025BQQ", "EPOCH": "2025-12-12T15:40:36.276096", "MEAN_MOTION": 14.38700612, "ECCENTRICITY": 0.00939779, "INCLINATION": 98.4653, "RA_OF_ASC_NODE": 41.8827, "ARG_OF_PERICENTER": 118.8628, "MEAN_ANOMALY": 32.7927, "EPHEMERIS_TYPE": 0, "CLASSIFICATION_TYPE": "U", "NORAD_CAT_ID": 31336, "ELEMENT_SET_NO": 999, "REV_AT_EPOCH": 97789, "BSTAR": 0.00049475681, "MEAN_MOTION_DOT": 1.553e-05, "MEAN_MOTION_DDOT": 0}, "tle": {"line1": "1 31336U 99025BQQ 25346.65319764  .00001553  00000+0  49476-3 0  9998", "line2": "2 31336  98.4653  41.8827 0093977 118.8628  32.7927 14.38700612977894"}}, "geometry": {"type": "Point", "coordinates": [-140.16361311990556, -27.92048267177268]}}, {"type": "Feature", "properties": {"norad_id": 31338, "name": "FENGYUN 1C DEB", "group": "fengyun-1c-debris", "lat": -14.990928222346017, "lon": -168.50120059733743, "alt_km": 850.6361749293483, "timestamp": "2025-12-15T04:01:20.733504+00:00", "meta": {"OBJECT_NAME": "FENGYUN 1C DEB", "OBJECT_ID": "1999-025BQS", "EPOCH": "2025-12-13T19:58:48.275616", "MEAN_MOTION": 14.20740304, "ECCENTRICITY": 0.00716487, "INCLINATION": 98.717, "RA_OF_ASC_NODE": 187.8276, "ARG_OF_PERICENTER": 105.8763, "MEAN_ANOMALY": 255.0325, "EPHEMERIS_TYPE": 0, "CLASSIFICATION_TYPE": "U", "NORAD_CAT_ID": 31338, "ELEMENT_SET_NO": 999, "REV_AT_EPOCH": 63673, "BSTAR": 0.0028960455, "MEAN_MOTION_DOT": 6.372e-05, "MEAN_MOTION_DDOT": 0}, "tle": {"line1": "1 31338U 99025BQS 25347.83250319  .00006372  00000+0  28960-2 0  9999", "line2": "2 31338  98.7170 187.8276 0071648 105.8763 255.0325 14.20740304636739"}}, "geometry": {"type": "Point", "coordinates": [-168.50120059733743, -14.990928222346017]}}, {"type": "Feature", "properties": {"norad_id": 31339, "name": "FENGYUN 1C DEB", "group": "fengyun-1c-debris", "lat": -65.80907912630583, "lon": 25.726025924351465, "alt_km": 810.5979030151093, "timestamp": "2025-12-15T04:01:20.733514+00:00", "meta": {"OBJECT_NAME": "FENGYUN 1C DEB", "OBJECT_ID": "1999-025BQT", "EPOCH": "2025-12-14T07:55:52.192416", "MEAN_MOTION": 14.12177582, "ECCENTRICITY": 0.00742774, "INCLINATION": 98.7142, "RA_OF_ASC_NODE": 4.9493, "ARG_OF_PERICENTER": 320.6656, "MEAN_ANOMALY": 38.9135, "EPHEMERIS_TYPE": 0, "CLASSIFICATION_TYPE": "U", "NORAD_CAT_ID": 31339, "ELEMENT_SET_NO": 999, "REV_AT_EPOCH": 95700, "BSTAR": 0.0011951594, "MEAN_MOTION_DOT": 2.21e-05, "MEAN_MOTION_DDOT": 0}, "tle": {"line1": "1 31339U 99025BQT 25348.33046519  .00002210  00000+0  11952-2 0  9991", "line2": "2 31339  98.7142   4.9493 0074277 320.6656  38.9135 14.12177582957004"}}, "geometry": {"type": "Point", "coordinates": [25.726025924351465, -65.80907912630583]}}, {"type": "Feature", "properties": {"norad_id": 31341, "name": "FENGYUN 1C DEB", "group": "fengyun-1c-debris", "lat": -63.26803913552723, "lon": 50.294318543897184, "alt_km": 694.874384497024, "timestamp": "2025-12-15T04:01:20.733527+00:00", "meta": {"OBJECT_NAME": "FENGYUN 1C DEB", "OBJECT_ID": "1999-025BQV", "EPOCH": "2025-12-14T02:07:51.875904", "MEAN_MOTION": 14.53342821, "ECCENTRICITY": 0.00530045, "INCLINATION": 99.5562, "RA_OF_ASC_NODE": 29.5245, "ARG_OF_PERICENTER": 342.6952, "MEAN_ANOMALY": 71.6834, "EPHEMERIS_TYPE": 0, "CLASSIFICATION_TYPE": "U", "NORAD_CAT_ID": 31341, "ELEMENT_SET_NO": 999, "REV_AT_EPOCH": 97638, "BSTAR": 0.0014582275, "MEAN_MOTION_DOT": 6.12e-05, "MEAN_MOTION_DDOT": 0}, "tle": {"line1": "1 31341U 99025BQV 25348.08879486  .00006120  00000+0  14582-2 0  9999", "line2": "2 31341  99.5562  29.5245 0053004 342.6952  71.6834 14.53342821976385"}}, "geometry": {"type": "Point", "coordinates": [50.294318543897184, -63.26803913552723]}}]}